[{"OBJECT_NAME":"ONEWEB-0353","OBJECT_ID":"2021-090D","EPOCH":"2026-03-09T17:23:39.182784","MEAN_MOTION":13.14503046,"ECCENTRICITY":0.00015299,"INCLINATION":87.8988,"RA_OF_ASC_NODE":309.55,"ARG_OF_PERICENTER":90.439,"MEAN_ANOMALY":269.6915,"EPHEMERIS_TYPE":0,"CLASSIFICATION_TYPE":"U","NORAD_CAT_ID":49282,"ELEMENT_SET_NO":999,"REV_AT_EPOCH":21451,"BSTAR":0.00063523878,"MEAN_MOTION_DOT":2.48e-6,"MEAN_MOTION_DDOT":0},{"OBJECT_NAME":"METEOR 3-6","OBJECT_ID":"1994-003A","EPOCH":"2026-03-09T19:16:37.191936","MEAN_MOTION":13.17059795,"ECCENTRICITY":0.00162952,"INCLINATION":82.5663,"RA_OF_ASC_NODE":157.4504,"ARG_OF_PERICENTER":96.7518,"MEAN_ANOMALY":263.5459,"EPHEMERIS_TYPE":0,"CLASSIFICATION_TYPE":"U","NORAD_CAT_ID":22969,"ELEMENT_SET_NO":999,"REV_AT_EPOCH":54415,"BSTAR":-0.0003016254,"MEAN_MOTION_DOT":-1.04e-6,"MEAN_MOTION_DDOT":0}]
